OBJECT_NAME,OBJECT_ID,EPOCH,MEAN_MOTION,ECCENTRICITY,INCLINATION,RA_OF_ASC_NODE,ARG_OF_PERICENTER,MEAN_ANOMALY,EPHEMERIS_TYPE,CLASSIFICATION_TYPE,NORAD_CAT_ID,ELEMENT_SET_NO,REV_AT_EPOCH,BSTAR,MEAN_MOTION_DOT,MEAN_MOTION_DDOT
SES-20,2022-123A,2026-06-11T21:18:40.728960,1.00271689,.00017706,0.0347,75.6140,6.5684,34.6215,0,U,53960,999,1348,0,-.85E-6,0
SES-21,2022-123B,2026-06-11T12:37:19.251264,1.00269986,.0000921,0.0262,32.5421,47.6721,237.9742,0,U,53961,999,715,0,.86E-6,0
GALAXY 33 (G-33),2022-128A,2026-06-11T17:44:44.440800,1.00270185,.00016674,0.0068,328.0284,116.5773,308.6721,0,U,54026,999,1368,0,.96E-6,0
GALAXY 34 (G-34),2022-128B,2026-06-11T16:03:13.549248,1.00273054,.00015763,0.0219,345.5529,108.0855,278.1799,0,U,54027,999,1385,0,0,0
ANGOSAT 2,2022-131A,2026-06-10T13:24:03.855744,1.00272183,.00012665,0.0349,88.7475,27.5902,6.5973,0,U,54033,999,1341,0,.153E-5,0
EUTELSAT HOTBIRD 13F,2022-134A,2026-06-11T21:51:44.783136,1.00271172,.00019718,0.0449,293.4140,62.6097,245.1684,0,U,54048,999,1332,0,.103E-5,0
LDPE-2,2022-144A,2026-06-11T14:59:47.781312,1.00529787,.0001834,5.5990,63.6947,103.0246,155.5139,0,U,54219,999,1178,0,.144E-5,0
EUTELSAT HOTBIRD 13G,2022-146A,2026-06-11T21:51:44.783136,1.00271576,.00020224,0.0464,228.5580,316.3573,56.2720,0,U,54225,999,741,0,.103E-5,0
ZHONGXING-19,2022-148A,2026-06-11T22:34:32.514240,1.00271291,.00022701,0.0157,307.8899,159.9963,294.2206,0,U,54230,999,1332,0,-.65E-6,0
GALAXY 31 (G-31),2022-153A,2026-06-11T16:05:28.334112,1.00270115,.00011304,0.0180,295.7377,136.8388,307.8081,0,U,54243,999,707,0,.3E-6,0
GALAXY 32 (G-32),2022-153B,2026-06-11T21:22:02.905824,1.00271384,.0002061,0.0100,7.3506,26.1221,96.2732,0,U,54244,999,1309,0,-.158E-5,0
EUTELSAT 10B,2022-157A,2026-06-11T16:42:54.742752,1.00278962,.00011043,0.0628,104.1683,351.0436,65.5811,0,U,54259,999,1297,0,.86E-6,0
GALAXY 35 (G-35),2022-170A,2026-06-11T14:30:46.708992,1.00270834,.00018886,0.0155,296.8943,146.7176,300.9339,0,U,54741,999,1283,0,-.145E-5,0
GALAXY 36 (G-36),2022-170B,2026-06-11T21:22:40.346400,1.00271633,.00025533,0.0379,128.0646,314.2948,49.5449,0,U,54742,999,1272,0,-.169E-5,0
METEOSAT-12 (MTG-I1),2022-170C,2026-06-11T21:47:52.653984,1.00271747,.0003228,0.7322,22.0444,71.9393,132.8078,0,U,54743,999,1292,0,.7E-7,0
SHIJIAN-23 (SJ-23),2023-002A,2026-06-11T16:23:34.344096,1.00088953,.0003806,3.7026,78.3803,272.7782,306.5032,0,U,55131,999,1245,0,-.206E-5,0
APSTAR-6E,2023-005A,2026-06-10T15:56:29.693184,1.00270607,.00010438,0.0249,253.3859,305.6629,73.1073,0,U,55239,999,1862,0,-.3E-5,0
USA 342,2023-008A,2026-06-10T06:33:40.001760,1.00272706,.0000235,0.0036,23.3608,273.9776,83.6406,0,U,55263,999,1244,0,0,0
LDPE-3A,2023-008B,2026-06-11T21:23:02.810400,0.99145248,.00011093,2.3332,81.7272,61.4181,350.2956,0,U,55264,999,1176,0,-.3E-6,0
ELEKTRO-L 4,2023-016A,2026-06-10T19:40:04.838016,1.00272872,.00008229,0.0721,174.0756,1.1447,184.7922,0,U,55506,999,1227,0,-.4E-6,0
AMAZONAS NEXUS,2023-017A,2026-06-11T12:57:17.336736,1.00266544,.00050339,0.0377,34.4009,30.2444,328.5655,0,U,55508,999,698,0,-.266E-5,0
ZHONGXING-26,2023-023A,2026-06-11T22:23:41.054784,1.00273187,.00033219,0.0695,71.6588,13.4559,276.1632,0,U,55686,999,1217,0,-.337E-5,0
LUCH-5X (OLYMP-K 2),2023-031A,2026-06-11T12:07:38.695008,1.00272154,.0000733,0.0284,60.7738,170.3710,272.5925,0,U,55841,999,1188,0,.5E-6,0
GAOFEN-13 02,2023-036A,2026-06-11T22:29:55.457088,1.00271705,.00041563,1.0199,0.4255,337.0556,48.5785,0,U,55912,999,1204,0,-.203E-5,0
SES-18,2023-038A,2026-06-11T21:18:40.728960,1.00271143,.00002208,0.0248,287.1701,22.6944,166.9375,0,U,55970,999,1205,0,-.85E-6,0
SES-19,2023-038B,2026-06-11T17:44:14.489376,1.00272382,.00015317,0.0128,322.8160,122.6236,305.8090,0,U,55971,999,1203,0,.104E-5,0
INTELSAT 40E (IS-40E),2023-052A,2026-06-11T12:48:48.151296,1.00272650,.00020048,0.0184,11.4493,112.2014,237.4225,0,U,56174,999,1176,0,0,0
VIASAT-3 F1,2023-060A,2026-06-11T14:32:01.590144,1.00276196,.00010506,0.0241,328.9826,116.9734,303.0262,0,U,56370,999,1137,0,0,0
ARCTURUS,2023-060B,2026-06-11T23:19:45.122592,1.00272209,.00023861,2.7627,80.0117,45.0654,197.6509,0,U,56371,999,1140,0,-.48E-6,0
GS-1,2023-060C,2026-06-08T15:31:07.690656,1.00277054,.00041256,2.7050,79.9310,279.9950,219.1575,0,U,56372,999,745,0,-.208E-5,0
BEIDOU-3 G4,2023-066A,2026-06-10T08:49:24.195360,1.00265779,.00043973,0.4953,329.6081,171.1303,30.2733,0,U,56564,999,1132,0,-.265E-5,0
ARABSAT-7B (BADR-8),2023-075A,2026-06-11T13:22:05.899872,1.00270990,.0004683,0.0752,27.3353,354.7630,104.3415,0,U,56757,999,1106,0,.161E-5,0
